{
  "norad_id": 48789,
  "name": "ONEWEB-0221",
  "history": [
    {
      "epoch": "2026-04-11T20:18:07.705728Z",
      "apogee_km": 1203.2482725120872,
      "perigee_km": 1200.2981714536909,
      "latitude_deg": -2.0677113292853274e-05,
      "longitude_deg": 127.83053419312446,
      "height_km": 1204.7003094898039,
      "semi_major_axis_km": 7579.910221982889,
      "eccentricity": 0.0001946,
      "inclination_deg": 87.8942,
      "raan_deg": 272.4222,
      "arg_perigee_deg": 91.3609,
      "mean_anomaly_deg": 268.7744,
      "mean_motion_rev_day": 13.15547911
    },
    {
      "epoch": "2026-04-13T05:09:32.173344Z",
      "apogee_km": 1203.2702228521866,
      "perigee_km": 1200.2822210600907,
      "latitude_deg": -6.800836600238165e-06,
      "longitude_deg": -6.644495008941589,
      "height_km": 1204.704217401224,
      "semi_major_axis_km": 7579.913221956138,
      "eccentricity": 0.0001971,
      "inclination_deg": 87.8942,
      "raan_deg": 272.1485,
      "arg_perigee_deg": 91.3803,
      "mean_anomaly_deg": 268.7553,
      "mean_motion_rev_day": 13.1554713
    },
    {
      "epoch": "2026-04-14T17:39:59.131584Z",
      "apogee_km": 1203.2362291782902,
      "perigee_km": 1200.3103837999852,
      "latitude_deg": -4.046675228316346e-05,
      "longitude_deg": 163.93987005982817,
      "height_km": 1204.6895790560934,
      "semi_major_axis_km": 7579.910306489137,
      "eccentricity": 0.000193,
      "inclination_deg": 87.8945,
      "raan_deg": 271.8445,
      "arg_perigee_deg": 90.9473,
      "mean_anomaly_deg": 269.1878,
      "mean_motion_rev_day": 13.15547889
    },
    {
      "epoch": "2026-04-15T17:23:46.736736Z",
      "apogee_km": 1203.235277960538,
      "perigee_km": 1200.3124643286255,
      "latitude_deg": -1.7727403711379896e-05,
      "longitude_deg": 166.81916597464573,
      "height_km": 1204.6885463765864,
      "semi_major_axis_km": 7579.9108711445815,
      "eccentricity": 0.0001928,
      "inclination_deg": 87.8944,
      "raan_deg": 271.6467,
      "arg_perigee_deg": 90.8857,
      "mean_anomaly_deg": 269.2494,
      "mean_motion_rev_day": 13.15547742
    },
    {
      "epoch": "2026-04-16T17:07:34.279680Z",
      "apogee_km": 1203.2551696843866,
      "perigee_km": 1200.2883933872945,
      "latitude_deg": -4.970936694478274e-05,
      "longitude_deg": 169.6989198483757,
      "height_km": 1204.6891444983246,
      "semi_major_axis_km": 7579.908781535841,
      "eccentricity": 0.0001957,
      "inclination_deg": 87.8946,
      "raan_deg": 271.4491,
      "arg_perigee_deg": 90.9781,
      "mean_anomaly_deg": 269.1573,
      "mean_motion_rev_day": 13.15548286
    },
    {
      "epoch": "2026-04-17T22:19:56.004384Z",
      "apogee_km": 1203.2651641860339,
      "perigee_km": 1200.2812567325846,
      "latitude_deg": -7.948642282678208e-05,
      "longitude_deg": 90.16605155612989,
      "height_km": 1204.6900867129345,
      "semi_major_axis_km": 7579.910210459309,
      "eccentricity": 0.00019683,
      "inclination_deg": 87.895,
      "raan_deg": 271.2062,
      "arg_perigee_deg": 90.9543,
      "mean_anomaly_deg": 269.1812,
      "mean_motion_rev_day": 13.15547914
    },
    {
      "epoch": "2026-04-18T20:14:12.312384Z",
      "apogee_km": 1203.2480957828257,
      "perigee_km": 1200.2979947932,
      "latitude_deg": -2.393013152231741e-05,
      "longitude_deg": 120.51601657961075,
      "height_km": 1204.6886292879572,
      "semi_major_axis_km": 7579.910045288013,
      "eccentricity": 0.0001946,
      "inclination_deg": 87.8951,
      "raan_deg": 271.0237,
      "arg_perigee_deg": 90.9138,
      "mean_anomaly_deg": 269.2215,
      "mean_motion_rev_day": 13.15547957
    },
    {
      "epoch": "2026-04-19T19:57:59.933088Z",
      "apogee_km": 1203.2375921605362,
      "perigee_km": 1200.3026521228421,
      "latitude_deg": -9.05159500767025e-06,
      "longitude_deg": 123.3954443324177,
      "height_km": 1204.6865298057132,
      "semi_major_axis_km": 7579.907122141689,
      "eccentricity": 0.0001936,
      "inclination_deg": 87.8945,
      "raan_deg": 270.8261,
      "arg_perigee_deg": 90.9502,
      "mean_anomaly_deg": 269.185,
      "mean_motion_rev_day": 13.15548718
    },
    {
      "epoch": "2026-04-20T08:44:39.433056Z",
      "apogee_km": 1203.2405531158429,
      "perigee_km": 1200.3015195738308,
      "latitude_deg": 6.078773340201579e-05,
      "longitude_deg": -68.90009631285159,
      "height_km": 1204.689394541272,
      "semi_major_axis_km": 7579.908036344837,
      "eccentricity": 0.00019387,
      "inclination_deg": 87.895,
      "raan_deg": 270.7199,
      "arg_perigee_deg": 91.0254,
      "mean_anomaly_deg": 269.1099,
      "mean_motion_rev_day": 13.1554848
    },
    {
      "epoch": "2026-04-21T19:25:35.272992Z",
      "apogee_km": 1203.2346209898205,
      "perigee_km": 1200.311807611186,
      "latitude_deg": -1.435533179815278e-05,
      "longitude_deg": 129.15408458549646,
      "height_km": 1204.7004524856823,
      "semi_major_axis_km": 7579.910214300503,
      "eccentricity": 0.0001928,
      "inclination_deg": 87.8952,
      "raan_deg": 270.4311,
      "arg_perigee_deg": 91.378,
      "mean_anomaly_deg": 268.7571,
      "mean_motion_rev_day": 13.15547913
    },
    {
      "epoch": "2026-04-22T19:09:22.754592Z",
      "apogee_km": 1203.2368253559425,
      "perigee_km": 1200.3049169913738,
      "latitude_deg": 1.6285463991248523e-05,
      "longitude_deg": 132.03419271060662,
      "height_km": 1204.6959771939912,
      "semi_major_axis_km": 7579.907871173658,
      "eccentricity": 0.0001934,
      "inclination_deg": 87.8954,
      "raan_deg": 270.2336,
      "arg_perigee_deg": 91.2909,
      "mean_anomaly_deg": 268.8443,
      "mean_motion_rev_day": 13.15548523
    },
    {
      "epoch": "2026-04-23T11:35:04.920576Z",
      "apogee_km": 1203.2603798892442,
      "perigee_km": 1200.283598031101,
      "latitude_deg": 8.308728786452825e-05,
      "longitude_deg": -115.20268736481434,
      "height_km": 1204.7119000877049,
      "semi_major_axis_km": 7579.908988960173,
      "eccentricity": 0.00019636,
      "inclination_deg": 87.8957,
      "raan_deg": 270.0971,
      "arg_perigee_deg": 91.8438,
      "mean_anomaly_deg": 268.2918,
      "mean_motion_rev_day": 13.15548232
    },
    {
      "epoch": "2026-04-24T11:18:52.466976Z",
      "apogee_km": 1203.263745324758,
      "perigee_km": 1200.275746085601,
      "latitude_deg": -4.112798647386039e-06,
      "longitude_deg": -112.32285319282181,
      "height_km": 1204.7054841137976,
      "semi_major_axis_km": 7579.906745705179,
      "eccentricity": 0.0001971,
      "inclination_deg": 87.8963,
      "raan_deg": 269.8996,
      "arg_perigee_deg": 91.6766,
      "mean_anomaly_deg": 268.459,
      "mean_motion_rev_day": 13.15548816
    },
    {
      "epoch": "2026-04-25T20:10:16.766112Z",
      "apogee_km": 1203.1779721436478,
      "perigee_km": 1200.3627945414737,
      "latitude_deg": -5.6406995940337535e-06,
      "longitude_deg": 113.20242106155946,
      "height_km": 1204.6762847929838,
      "semi_major_axis_km": 7579.90738334256,
      "eccentricity": 0.0001857,
      "inclination_deg": 87.8959,
      "raan_deg": 269.6255,
      "arg_perigee_deg": 90.5569,
      "mean_anomaly_deg": 269.5774,
      "mean_motion_rev_day": 13.1554865
    }
  ]
}